{"type": "FeatureCollection", "features": [{"type": "Feature", "properties": {"kind": "parallel", "lat": -85}, "geometry": {"type": "LineString", "coordinates": [[-180, -85], [-178, -85], [-176, -85], [-174, -85], [-172, -85], [-170, -85], [-168, -85], [-166, -85], [-164, -85], [-162, -85], [-160, -85], [-158, -85], [-156, -85], [-154, -85], [-152, -85], [-150, -85], [-148, -85], [-146, -85], [-144, -85], [-142, -85], [-140, -85], [-138, -85], [-136, -85], [-134, -85], [-132, -85], [-130, -85], [-128, -85], [-126, -85], [-124, -85], [-122, -85], [-120, -85], [-118, -85], [-116, -85], [-114, -85], [-112, -85], [-110, -85], [-108, -85], [-106, -85], [-104, -85], [-102, -85], [-100, -85], [-98, -85], [-96, -85], [-94, -85], [-92, -85], [-90, -85], [-88, -85], [-86, -85], [-84, -85], [-82, -85], [-80, -85], [-78, -85], [-76, -85], [-74, -85], [-72, -85], [-70, -85], [-68, -85], [-66, -85], [-64, -85], [-62, -85], [-60, -85], [-58, -85], [-56, -85], [-54, -85], [-52, -85], [-50, -85], [-48, -85], [-46, -85], [-44, -85], [-42, -85], [-40, -85], [-38, -85], [-36, -85], [-34, -85], [-32, -85], [-30, -85], [-28, -85], [-26, -85], [-24, -85], [-22, -85], [-20, -85], [-18, -85], [-16, -85], [-14, -85], [-12, -85], [-10, -85], [-8, -85], [-6, -85], [-4, -85], [-2, -85], [0, -85], [2, -85], [4, -85], [6, -85], [8, -85], [10, -85], [12, -85], [14, -85], [16, -85], [18, -85], [20, -85], [22, -85], [24, -85], [26, -85], [28, -85], [30, -85], [32, -85], [34, -85], [36, -85], [38, -85], [40, -85], [42, -85], [44, -85], [46, -85], [48, -85], [50, -85], [52, -85], [54, -85], [56, -85], [58, -85], [60, -85], [62, -85], [64, -85], [66, -85], [68, -85], [70, -85], [72, -85], [74, -85], [76, -85], [78, -85], [80, -85], [82, -85], [84, -85], [86, -85], [88, -85], [90, -85], [92, -85], [94, -85], [96, -85], [98, -85], [100, -85], [102, -85], [104, -85], [106, -85], [108, -85], [110, -85], [112, -85], [114, -85], [116, -85], [118, -85], [120, -85], [122, -85], [124, -85], [126, -85], [128, -85], [130, -85], [132, -85], [134, -85], [136, -85], [138, -85], [140, -85], [142, -85], [144, -85], [146, -85], [148, -85], [150, -85], [152, -85], [154, -85], [156, -85], [158, -85], [160, -85], [162, -85], [164, -85], [166, -85], [168, -85], [170, -85], [172, -85], [174, -85], [176, -85], [178, -85], [180, -85]]}}, {"type": "Feature", "properties": {"kind": "parallel", "lat": -80}, "geometry": {"type": "LineString", "coordinates": [[-180, -80], [-178, -80], [-176, -80], [-174, -80], [-172, -80], [-170, -80], [-168, -80], [-166, -80], [-164, -80], [-162, -80], [-160, -80], [-158, -80], [-156, -80], [-154, -80], [-152, -80], [-150, -80], [-148, -80], [-146, -80], [-144, -80], [-142, -80], [-140, -80], [-138, -80], [-136, -80], [-134, -80], [-132, -80], [-130, -80], [-128, -80], [-126, -80], [-124, -80], [-122, -80], [-120, -80], [-118, -80], [-116, -80], [-114, -80], [-112, -80], [-110, -80], [-108, -80], [-106, -80], [-104, -80], [-102, -80], [-100, -80], [-98, -80], [-96, -80], [-94, -80], [-92, -80], [-90, -80], [-88, -80], [-86, -80], [-84, -80], [-82, -80], [-80, -80], [-78, -80], [-76, -80], [-74, -80], [-72, -80], [-70, -80], [-68, -80], [-66, -80], [-64, -80], [-62, -80], [-60, -80], [-58, -80], [-56, -80], [-54, -80], [-52, -80], [-50, -80], [-48, -80], [-46, -80], [-44, -80], [-42, -80], [-40, -80], [-38, -80], [-36, -80], [-34, -80], [-32, -80], [-30, -80], [-28, -80], [-26, -80], [-24, -80], [-22, -80], [-20, -80], [-18, -80], [-16, -80], [-14, -80], [-12, -80], [-10, -80], [-8, -80], [-6, -80], [-4, -80], [-2, -80], [0, -80], [2, -80], [4, -80], [6, -80], [8, -80], [10, -80], [12, -80], [14, -80], [16, -80], [18, -80], [20, -80], [22, -80], [24, -80], [26, -80], [28, -80], [30, -80], [32, -80], [34, -80], [36, -80], [38, -80], [40, -80], [42, -80], [44, -80], [46, -80], [48, -80], [50, -80], [52, -80], [54, -80], [56, -80], [58, -80], [60, -80], [62, -80], [64, -80], [66, -80], [68, -80], [70, -80], [72, -80], [74, -80], [76, -80], [78, -80], [80, -80], [82, -80], [84, -80], [86, -80], [88, -80], [90, -80], [92, -80], [94, -80], [96, -80], [98, -80], [100, -80], [102, -80], [104, -80], [106, -80], [108, -80], [110, -80], [112, -80], [114, -80], [116, -80], [118, -80], [120, -80], [122, -80], [124, -80], [126, -80], [128, -80], [130, -80], [132, -80], [134, -80], [136, -80], [138, -80], [140, -80], [142, -80], [144, -80], [146, -80], [148, -80], [150, -80], [152, -80], [154, -80], [156, -80], [158, -80], [160, -80], [162, -80], [164, -80], [166, -80], [168, -80], [170, -80], [172, -80], [174, -80], [176, -80], [178, -80], [180, -80]]}}, {"type": "Feature", "properties": {"kind": "parallel", "lat": -75}, "geometry": {"type": "LineString", "coordinates": [[-180, -75], [-178, -75], [-176, -75], [-174, -75], [-172, -75], [-170, -75], [-168, -75], [-166, -75], [-164, -75], [-162, -75], [-160, -75], [-158, -75], [-156, -75], [-154, -75], [-152, -75], [-150, -75], [-148, -75], [-146, -75], [-144, -75], [-142, -75], [-140, -75], [-138, -75], [-136, -75], [-134, -75], [-132, -75], [-130, -75], [-128, -75], [-126, -75], [-124, -75], [-122, -75], [-120, -75], [-118, -75], [-116, -75], [-114, -75], [-112, -75], [-110, -75], [-108, -75], [-106, -75], [-104, -75], [-102, -75], [-100, -75], [-98, -75], [-96, -75], [-94, -75], [-92, -75], [-90, -75], [-88, -75], [-86, -75], [-84, -75], [-82, -75], [-80, -75], [-78, -75], [-76, -75], [-74, -75], [-72, -75], [-70, -75], [-68, -75], [-66, -75], [-64, -75], [-62, -75], [-60, -75], [-58, -75], [-56, -75], [-54, -75], [-52, -75], [-50, -75], [-48, -75], [-46, -75], [-44, -75], [-42, -75], [-40, -75], [-38, -75], [-36, -75], [-34, -75], [-32, -75], [-30, -75], [-28, -75], [-26, -75], [-24, -75], [-22, -75], [-20, -75], [-18, -75], [-16, -75], [-14, -75], [-12, -75], [-10, -75], [-8, -75], [-6, -75], [-4, -75], [-2, -75], [0, -75], [2, -75], [4, -75], [6, -75], [8, -75], [10, -75], [12, -75], [14, -75], [16, -75], [18, -75], [20, -75], [22, -75], [24, -75], [26, -75], [28, -75], [30, -75], [32, -75], [34, -75], [36, -75], [38, -75], [40, -75], [42, -75], [44, -75], [46, -75], [48, -75], [50, -75], [52, -75], [54, -75], [56, -75], [58, -75], [60, -75], [62, -75], [64, -75], [66, -75], [68, -75], [70, -75], [72, -75], [74, -75], [76, -75], [78, -75], [80, -75], [82, -75], [84, -75], [86, -75], [88, -75], [90, -75], [92, -75], [94, -75], [96, -75], [98, -75], [100, -75], [102, -75], [104, -75], [106, -75], [108, -75], [110, -75], [112, -75], [114, -75], [116, -75], [118, -75], [120, -75], [122, -75], [124, -75], [126, -75], [128, -75], [130, -75], [132, -75], [134, -75], [136, -75], [138, -75], [140, -75], [142, -75], [144, -75], [146, -75], [148, -75], [150, -75], [152, -75], [154, -75], [156, -75], [158, -75], [160, -75], [162, -75], [164, -75], [166, -75], [168, -75], [170, -75], [172, -75], [174, -75], [176, -75], [178, -75], [180, -75]]}}, {"type": "Feature", "properties": {"kind": "parallel", "lat": -70}, "geometry": {"type": "LineString", "coordinates": [[-180, -70], [-178, -70], [-176, -70], [-174, -70], [-172, -70], [-170, -70], [-168, -70], [-166, -70], [-164, -70], [-162, -70], [-160, -70], [-158, -70], [-156, -70], [-154, -70], [-152, -70], [-150, -70], [-148, -70], [-146, -70], [-144, -70], [-142, -70], [-140, -70], [-138, -70], [-136, -70], [-134, -70], [-132, -70], [-130, -70], [-128, -70], [-126, -70], [-124, -70], [-122, -70], [-120, -70], [-118, -70], [-116, -70], [-114, -70], [-112, -70], [-110, -70], [-108, -70], [-106, -70], [-104, -70], [-102, -70], [-100, -70], [-98, -70], [-96, -70], [-94, -70], [-92, -70], [-90, -70], [-88, -70], [-86, -70], [-84, -70], [-82, -70], [-80, -70], [-78, -70], [-76, -70], [-74, -70], [-72, -70], [-70, -70], [-68, -70], [-66, -70], [-64, -70], [-62, -70], [-60, -70], [-58, -70], [-56, -70], [-54, -70], [-52, -70], [-50, -70], [-48, -70], [-46, -70], [-44, -70], [-42, -70], [-40, -70], [-38, -70], [-36, -70], [-34, -70], [-32, -70], [-30, -70], [-28, -70], [-26, -70], [-24, -70], [-22, -70], [-20, -70], [-18, -70], [-16, -70], [-14, -70], [-12, -70], [-10, -70], [-8, -70], [-6, -70], [-4, -70], [-2, -70], [0, -70], [2, -70], [4, -70], [6, -70], [8, -70], [10, -70], [12, -70], [14, -70], [16, -70], [18, -70], [20, -70], [22, -70], [24, -70], [26, -70], [28, -70], [30, -70], [32, -70], [34, -70], [36, -70], [38, -70], [40, -70], [42, -70], [44, -70], [46, -70], [48, -70], [50, -70], [52, -70], [54, -70], [56, -70], [58, -70], [60, -70], [62, -70], [64, -70], [66, -70], [68, -70], [70, -70], [72, -70], [74, -70], [76, -70], [78, -70], [80, -70], [82, -70], [84, -70], [86, -70], [88, -70], [90, -70], [92, -70], [94, -70], [96, -70], [98, -70], [100, -70], [102, -70], [104, -70], [106, -70], [108, -70], [110, -70], [112, -70], [114, -70], [116, -70], [118, -70], [120, -70], [122, -70], [124, -70], [126, -70], [128, -70], [130, -70], [132, -70], [134, -70], [136, -70], [138, -70], [140, -70], [142, -70], [144, -70], [146, -70], [148, -70], [150, -70], [152, -70], [154, -70], [156, -70], [158, -70], [160, -70], [162, -70], [164, -70], [166, -70], [168, -70], [170, -70], [172, -70], [174, -70], [176, -70], [178, -70], [180, -70]]}}, {"type": "Feature", "properties": {"kind": "parallel", "lat": -65}, "geometry": {"type": "LineString", "coordinates": [[-180, -65], [-178, -65], [-176, -65], [-174, -65], [-172, -65], [-170, -65], [-168, -65], [-166, -65], [-164, -65], [-162, -65], [-160, -65], [-158, -65], [-156, -65], [-154, -65], [-152, -65], [-150, -65], [-148, -65], [-146, -65], [-144, -65], [-142, -65], [-140, -65], [-138, -65], [-136, -65], [-134, -65], [-132, -65], [-130, -65], [-128, -65], [-126, -65], [-124, -65], [-122, -65], [-120, -65], [-118, -65], [-116, -65], [-114, -65], [-112, -65], [-110, -65], [-108, -65], [-106, -65], [-104, -65], [-102, -65], [-100, -65], [-98, -65], [-96, -65], [-94, -65], [-92, -65], [-90, -65], [-88, -65], [-86, -65], [-84, -65], [-82, -65], [-80, -65], [-78, -65], [-76, -65], [-74, -65], [-72, -65], [-70, -65], [-68, -65], [-66, -65], [-64, -65], [-62, -65], [-60, -65], [-58, -65], [-56, -65], [-54, -65], [-52, -65], [-50, -65], [-48, -65], [-46, -65], [-44, -65], [-42, -65], [-40, -65], [-38, -65], [-36, -65], [-34, -65], [-32, -65], [-30, -65], [-28, -65], [-26, -65], [-24, -65], [-22, -65], [-20, -65], [-18, -65], [-16, -65], [-14, -65], [-12, -65], [-10, -65], [-8, -65], [-6, -65], [-4, -65], [-2, -65], [0, -65], [2, -65], [4, -65], [6, -65], [8, -65], [10, -65], [12, -65], [14, -65], [16, -65], [18, -65], [20, -65], [22, -65], [24, -65], [26, -65], [28, -65], [30, -65], [32, -65], [34, -65], [36, -65], [38, -65], [40, -65], [42, -65], [44, -65], [46, -65], [48, -65], [50, -65], [52, -65], [54, -65], [56, -65], [58, -65], [60, -65], [62, -65], [64, -65], [66, -65], [68, -65], [70, -65], [72, -65], [74, -65], [76, -65], [78, -65], [80, -65], [82, -65], [84, -65], [86, -65], [88, -65], [90, -65], [92, -65], [94, -65], [96, -65], [98, -65], [100, -65], [102, -65], [104, -65], [106, -65], [108, -65], [110, -65], [112, -65], [114, -65], [116, -65], [118, -65], [120, -65], [122, -65], [124, -65], [126, -65], [128, -65], [130, -65], [132, -65], [134, -65], [136, -65], [138, -65], [140, -65], [142, -65], [144, -65], [146, -65], [148, -65], [150, -65], [152, -65], [154, -65], [156, -65], [158, -65], [160, -65], [162, -65], [164, -65], [166, -65], [168, -65], [170, -65], [172, -65], [174, -65], [176, -65], [178, -65], [180, -65]]}}, {"type": "Feature", "properties": {"kind": "parallel", "lat": -60}, "geometry": {"type": "LineString", "coordinates": [[-180, -60], [-178, -60], [-176, -60], [-174, -60], [-172, -60], [-170, -60], [-168, -60], [-166, -60], [-164, -60], [-162, -60], [-160, -60], [-158, -60], [-156, -60], [-154, -60], [-152, -60], [-150, -60], [-148, -60], [-146, -60], [-144, -60], [-142, -60], [-140, -60], [-138, -60], [-136, -60], [-134, -60], [-132, -60], [-130, -60], [-128, -60], [-126, -60], [-124, -60], [-122, -60], [-120, -60], [-118, -60], [-116, -60], [-114, -60], [-112, -60], [-110, -60], [-108, -60], [-106, -60], [-104, -60], [-102, -60], [-100, -60], [-98, -60], [-96, -60], [-94, -60], [-92, -60], [-90, -60], [-88, -60], [-86, -60], [-84, -60], [-82, -60], [-80, -60], [-78, -60], [-76, -60], [-74, -60], [-72, -60], [-70, -60], [-68, -60], [-66, -60], [-64, -60], [-62, -60], [-60, -60], [-58, -60], [-56, -60], [-54, -60], [-52, -60], [-50, -60], [-48, -60], [-46, -60], [-44, -60], [-42, -60], [-40, -60], [-38, -60], [-36, -60], [-34, -60], [-32, -60], [-30, -60], [-28, -60], [-26, -60], [-24, -60], [-22, -60], [-20, -60], [-18, -60], [-16, -60], [-14, -60], [-12, -60], [-10, -60], [-8, -60], [-6, -60], [-4, -60], [-2, -60], [0, -60], [2, -60], [4, -60], [6, -60], [8, -60], [10, -60], [12, -60], [14, -60], [16, -60], [18, -60], [20, -60], [22, -60], [24, -60], [26, -60], [28, -60], [30, -60], [32, -60], [34, -60], [36, -60], [38, -60], [40, -60], [42, -60], [44, -60], [46, -60], [48, -60], [50, -60], [52, -60], [54, -60], [56, -60], [58, -60], [60, -60], [62, -60], [64, -60], [66, -60], [68, -60], [70, -60], [72, -60], [74, -60], [76, -60], [78, -60], [80, -60], [82, -60], [84, -60], [86, -60], [88, -60], [90, -60], [92, -60], [94, -60], [96, -60], [98, -60], [100, -60], [102, -60], [104, -60], [106, -60], [108, -60], [110, -60], [112, -60], [114, -60], [116, -60], [118, -60], [120, -60], [122, -60], [124, -60], [126, -60], [128, -60], [130, -60], [132, -60], [134, -60], [136, -60], [138, -60], [140, -60], [142, -60], [144, -60], [146, -60], [148, -60], [150, -60], [152, -60], [154, -60], [156, -60], [158, -60], [160, -60], [162, -60], [164, -60], [166, -60], [168, -60], [170, -60], [172, -60], [174, -60], [176, -60], [178, -60], [180, -60]]}}, {"type": "Feature", "properties": {"kind": "meridian", "lon": -180}, "geometry": {"type": "LineString", "coordinates": [[-180, -89], [-180, -88], [-180, -87], [-180, -86], [-180, -85], [-180, -84], [-180, -83], [-180, -82], [-180, -81], [-180, -80], [-180, -79], [-180, -78], [-180, -77], [-180, -76], [-180, -75], [-180, -74], [-180, -73], [-180, -72], [-180, -71], [-180, -70], [-180, -69], [-180, -68], [-180, -67], [-180, -66], [-180, -65], [-180, -64], [-180, -63], [-180, -62], [-180, -61], [-180, -60], [-180, -59], [-180, -58], [-180, -57], [-180, -56], [-180, -55]]}}, {"type": "Feature", "properties": {"kind": "meridian", "lon": -150}, "geometry": {"type": "LineString", "coordinates": [[-150, -89], [-150, -88], [-150, -87], [-150, -86], [-150, -85], [-150, -84], [-150, -83], [-150, -82], [-150, -81], [-150, -80], [-150, -79], [-150, -78], [-150, -77], [-150, -76], [-150, -75], [-150, -74], [-150, -73], [-150, -72], [-150, -71], [-150, -70], [-150, -69], [-150, -68], [-150, -67], [-150, -66], [-150, -65], [-150, -64], [-150, -63], [-150, -62], [-150, -61], [-150, -60], [-150, -59], [-150, -58], [-150, -57], [-150, -56], [-150, -55]]}}, {"type": "Feature", "properties": {"kind": "meridian", "lon": -120}, "geometry": {"type": "LineString", "coordinates": [[-120, -89], [-120, -88], [-120, -87], [-120, -86], [-120, -85], [-120, -84], [-120, -83], [-120, -82], [-120, -81], [-120, -80], [-120, -79], [-120, -78], [-120, -77], [-120, -76], [-120, -75], [-120, -74], [-120, -73], [-120, -72], [-120, -71], [-120, -70], [-120, -69], [-120, -68], [-120, -67], [-120, -66], [-120, -65], [-120, -64], [-120, -63], [-120, -62], [-120, -61], [-120, -60], [-120, -59], [-120, -58], [-120, -57], [-120, -56], [-120, -55]]}}, {"type": "Feature", "properties": {"kind": "meridian", "lon": -90}, "geometry": {"type": "LineString", "coordinates": [[-90, -89], [-90, -88], [-90, -87], [-90, -86], [-90, -85], [-90, -84], [-90, -83], [-90, -82], [-90, -81], [-90, -80], [-90, -79], [-90, -78], [-90, -77], [-90, -76], [-90, -75], [-90, -74], [-90, -73], [-90, -72], [-90, -71], [-90, -70], [-90, -69], [-90, -68], [-90, -67], [-90, -66], [-90, -65], [-90, -64], [-90, -63], [-90, -62], [-90, -61], [-90, -60], [-90, -59], [-90, -58], [-90, -57], [-90, -56], [-90, -55]]}}, {"type": "Feature", "properties": {"kind": "meridian", "lon": -60}, "geometry": {"type": "LineString", "coordinates": [[-60, -89], [-60, -88], [-60, -87], [-60, -86], [-60, -85], [-60, -84], [-60, -83], [-60, -82], [-60, -81], [-60, -80], [-60, -79], [-60, -78], [-60, -77], [-60, -76], [-60, -75], [-60, -74], [-60, -73], [-60, -72], [-60, -71], [-60, -70], [-60, -69], [-60, -68], [-60, -67], [-60, -66], [-60, -65], [-60, -64], [-60, -63], [-60, -62], [-60, -61], [-60, -60], [-60, -59], [-60, -58], [-60, -57], [-60, -56], [-60, -55]]}}, {"type": "Feature", "properties": {"kind": "meridian", "lon": -30}, "geometry": {"type": "LineString", "coordinates": [[-30, -89], [-30, -88], [-30, -87], [-30, -86], [-30, -85], [-30, -84], [-30, -83], [-30, -82], [-30, -81], [-30, -80], [-30, -79], [-30, -78], [-30, -77], [-30, -76], [-30, -75], [-30, -74], [-30, -73], [-30, -72], [-30, -71], [-30, -70], [-30, -69], [-30, -68], [-30, -67], [-30, -66], [-30, -65], [-30, -64], [-30, -63], [-30, -62], [-30, -61], [-30, -60], [-30, -59], [-30, -58], [-30, -57], [-30, -56], [-30, -55]]}}, {"type": "Feature", "properties": {"kind": "meridian", "lon": 0}, "geometry": {"type": "LineString", "coordinates": [[0, -89], [0, -88], [0, -87], [0, -86], [0, -85], [0, -84], [0, -83], [0, -82], [0, -81], [0, -80], [0, -79], [0, -78], [0, -77], [0, -76], [0, -75], [0, -74], [0, -73], [0, -72], [0, -71], [0, -70], [0, -69], [0, -68], [0, -67], [0, -66], [0, -65], [0, -64], [0, -63], [0, -62], [0, -61], [0, -60], [0, -59], [0, -58], [0, -57], [0, -56], [0, -55]]}}, {"type": "Feature", "properties": {"kind": "meridian", "lon": 30}, "geometry": {"type": "LineString", "coordinates": [[30, -89], [30, -88], [30, -87], [30, -86], [30, -85], [30, -84], [30, -83], [30, -82], [30, -81], [30, -80], [30, -79], [30, -78], [30, -77], [30, -76], [30, -75], [30, -74], [30, -73], [30, -72], [30, -71], [30, -70], [30, -69], [30, -68], [30, -67], [30, -66], [30, -65], [30, -64], [30, -63], [30, -62], [30, -61], [30, -60], [30, -59], [30, -58], [30, -57], [30, -56], [30, -55]]}}, {"type": "Feature", "properties": {"kind": "meridian", "lon": 60}, "geometry": {"type": "LineString", "coordinates": [[60, -89], [60, -88], [60, -87], [60, -86], [60, -85], [60, -84], [60, -83], [60, -82], [60, -81], [60, -80], [60, -79], [60, -78], [60, -77], [60, -76], [60, -75], [60, -74], [60, -73], [60, -72], [60, -71], [60, -70], [60, -69], [60, -68], [60, -67], [60, -66], [60, -65], [60, -64], [60, -63], [60, -62], [60, -61], [60, -60], [60, -59], [60, -58], [60, -57], [60, -56], [60, -55]]}}, {"type": "Feature", "properties": {"kind": "meridian", "lon": 90}, "geometry": {"type": "LineString", "coordinates": [[90, -89], [90, -88], [90, -87], [90, -86], [90, -85], [90, -84], [90, -83], [90, -82], [90, -81], [90, -80], [90, -79], [90, -78], [90, -77], [90, -76], [90, -75], [90, -74], [90, -73], [90, -72], [90, -71], [90, -70], [90, -69], [90, -68], [90, -67], [90, -66], [90, -65], [90, -64], [90, -63], [90, -62], [90, -61], [90, -60], [90, -59], [90, -58], [90, -57], [90, -56], [90, -55]]}}, {"type": "Feature", "properties": {"kind": "meridian", "lon": 120}, "geometry": {"type": "LineString", "coordinates": [[120, -89], [120, -88], [120, -87], [120, -86], [120, -85], [120, -84], [120, -83], [120, -82], [120, -81], [120, -80], [120, -79], [120, -78], [120, -77], [120, -76], [120, -75], [120, -74], [120, -73], [120, -72], [120, -71], [120, -70], [120, -69], [120, -68], [120, -67], [120, -66], [120, -65], [120, -64], [120, -63], [120, -62], [120, -61], [120, -60], [120, -59], [120, -58], [120, -57], [120, -56], [120, -55]]}}, {"type": "Feature", "properties": {"kind": "meridian", "lon": 150}, "geometry": {"type": "LineString", "coordinates": [[150, -89], [150, -88], [150, -87], [150, -86], [150, -85], [150, -84], [150, -83], [150, -82], [150, -81], [150, -80], [150, -79], [150, -78], [150, -77], [150, -76], [150, -75], [150, -74], [150, -73], [150, -72], [150, -71], [150, -70], [150, -69], [150, -68], [150, -67], [150, -66], [150, -65], [150, -64], [150, -63], [150, -62], [150, -61], [150, -60], [150, -59], [150, -58], [150, -57], [150, -56], [150, -55]]}}, {"type": "Feature", "properties": {"kind": "iceshelf", "name": "Synthetic Ice Shelf"}, "geometry": {"type": "Polygon", "coordinates": [[[-180, -70.0], [-178, -69.37626492754673], [-176, -68.7797900707726], [-174, -68.23664424312258], [-172, -67.77056552356781], [-170, -67.40192378864668], [-168, -67.14683045111454], [-166, -67.01643431389518], [-164, -67.01643431389518], [-162, -67.14683045111454], [-160, -67.40192378864668], [-158, -67.77056552356781], [-156, -68.23664424312258], [-154, -68.7797900707726], [-152, -69.37626492754673], [-150, -70.0], [-148, -70.62373507245327], [-146, -71.22020992922741], [-144, -71.76335575687742], [-142, -72.22943447643219], [-140, -72.59807621135332], [-138, -72.85316954888546], [-136, -72.98356568610482], [-134, -72.98356568610482], [-132, -72.85316954888546], [-130, -72.59807621135332], [-128, -72.22943447643217], [-126, -71.76335575687742], [-124, -71.2202099292274], [-122, -70.62373507245327], [-120, -70.0], [-118, -69.37626492754673], [-116, -68.7797900707726], [-114, -68.23664424312258], [-112, -67.77056552356781], [-110, -67.40192378864668], [-108, -67.14683045111454], [-106, -67.01643431389518], [-104, -67.01643431389518], [-102, -67.14683045111454], [-100, -67.40192378864668], [-98, -67.77056552356783], [-96, -68.23664424312258], [-94, -68.7797900707726], [-92, -69.37626492754671], [-90, -70.0], [-88, -70.62373507245329], [-86, -71.2202099292274], [-84, -71.76335575687742], [-82, -72.22943447643217], [-80, -72.59807621135332], [-78, -72.85316954888546], [-76, -72.98356568610482], [-74, -72.98356568610482], [-72, -72.85316954888546], [-70, -72.59807621135332], [-68, -72.22943447643219], [-66, -71.76335575687742], [-64, -71.2202099292274], [-62, -70.62373507245327], [-60, -70.0], [-58, -69.37626492754673], [-56, -68.7797900707726], [-54, -68.23664424312258], [-52, -67.77056552356781], [-50, -67.40192378864668], [-48, -67.14683045111454], [-46, -67.01643431389518], [-44, -67.01643431389518], [-42, -67.14683045111454], [-40, -67.40192378864668], [-38, -67.77056552356781], [-36, -68.23664424312258], [-34, -68.7797900707726], [-32, -69.37626492754673], [-30, -70.0], [-28, -70.62373507245329], [-26, -71.22020992922741], [-24, -71.76335575687742], [-22, -72.22943447643219], [-20, -72.59807621135332], [-18, -72.85316954888546], [-16, -72.98356568610482], [-14, -72.98356568610482], [-12, -72.85316954888546], [-10, -72.59807621135332], [-8, -72.22943447643217], [-6, -71.76335575687742], [-4, -71.22020992922741], [-2, -70.62373507245329], [0, -70.0], [2, -69.37626492754671], [4, -68.77979007077259], [6, -68.23664424312258], [8, -67.77056552356781], [10, -67.40192378864668], [12, -67.14683045111454], [14, -67.01643431389518], [16, -67.01643431389518], [18, -67.14683045111454], [20, -67.40192378864668], [22, -67.77056552356781], [24, -68.23664424312258], [26, -68.7797900707726], [28, -69.37626492754673], [30, -70.00000000000001], [32, -70.62373507245327], [34, -71.2202099292274], [36, -71.76335575687742], [38, -72.22943447643219], [40, -72.59807621135332], [42, -72.85316954888546], [44, -72.98356568610482], [46, -72.98356568610482], [48, -72.85316954888546], [50, -72.59807621135332], [52, -72.22943447643217], [54, -71.76335575687742], [56, -71.2202099292274], [58, -70.62373507245329], [60, -70.0], [62, -69.37626492754673], [64, -68.7797900707726], [66, -68.23664424312257], [68, -67.77056552356783], [70, -67.40192378864668], [72, -67.14683045111454], [74, -67.01643431389518], [76, -67.01643431389518], [78, -67.14683045111454], [80, -67.40192378864668], [82, -67.77056552356781], [84, -68.23664424312258], [86, -68.7797900707726], [88, -69.37626492754673], [90, -70.0], [92, -70.62373507245329], [94, -71.2202099292274], [96, -71.76335575687742], [98, -72.22943447643219], [100, -72.59807621135332], [102, -72.85316954888546], [104, -72.98356568610482], [106, -72.98356568610482], [108, -72.85316954888546], [110, -72.59807621135332], [112, -72.22943447643217], [114, -71.76335575687743], [116, -71.2202099292274], [118, -70.62373507245329], [120, -70.0], [122, -69.37626492754673], [124, -68.77979007077259], [126, -68.2366442431226], [128, -67.77056552356781], [130, -67.40192378864668], [132, -67.14683045111454], [134, -67.01643431389518], [136, -67.01643431389518], [138, -67.14683045111454], [140, -67.40192378864668], [142, -67.77056552356783], [144, -68.23664424312258], [146, -68.7797900707726], [148, -69.37626492754673], [150, -69.99999999999999], [152, -70.62373507245327], [154, -71.2202099292274], [156, -71.76335575687742], [158, -72.22943447643219], [160, -72.59807621135332], [162, -72.85316954888546], [164, -72.98356568610482], [166, -72.98356568610482], [168, -72.85316954888546], [170, -72.59807621135332], [172, -72.22943447643219], [174, -71.76335575687742], [176, -71.22020992922741], [178, -70.62373507245329], [180, -70.0], [-180, -70.0]]]}}, {"type": "Feature", "properties": {"kind": "station", "name": "Amundsen-Scott"}, "geometry": {"type": "Point", "coordinates": [0.0, -89.99]}}, {"type": "Feature", "properties": {"kind": "station", "name": "Vostok"}, "geometry": {"type": "Point", "coordinates": [106.8, -78.46]}}, {"type": "Feature", "properties": {"kind": "station", "name": "Concordia"}, "geometry": {"type": "Point", "coordinates": [123.35, -75.1]}}, {"type": "Feature", "properties": {"kind": "station", "name": "McMurdo"}, "geometry": {"type": "Point", "coordinates": [166.67, -77.85]}}, {"type": "Feature", "properties": {"kind": "station", "name": "Rothera"}, "geometry": {"type": "Point", "coordinates": [-68.13, -67.57]}}, {"type": "Feature", "properties": {"kind": "station", "name": "Mawson"}, "geometry": {"type": "Point", "coordinates": [62.87, -67.6]}}]}